LAST NAME	FIRST NAME	EMAIL	ZIPCODE	CITY	STATE	ADDRESS
Shanker	Matt	jblemilo@jumpstartlab.com	00000	morgantown	WV	573 brockway ave apt 2
Yoon	Matt	tyenderson07@jumpstartlab.com	10974	Sloatsburg	NY	17 Birch Road
Van Noppen	Matt	dvin.anne.hutton@jumpstartlab.com	78626	Georgetown	TX	1001 E University Ave SU Box 6458
Webster	Matt	rdkroll@jumpstartlab.com	13617	Canton	NY	23 Romoda Dr
Schanz-Garbassi	Matt	pjrle1sl@jumpstartlab.com	37916	Knoxville	TN	2117 Andy Holt Ave. Apt. 1517
Thomas	Matt	rvleys@jumpstartlab.com	25701	Huntington	WV	621 1/2 13th Street
Havusha	Matt	tpikamorban@jumpstartlab.com	12180	Troy	NY	2005 15th Street
Yarychkivska	Matt	koeese@jumpstartlab.com	23185	williamsburg	VA	600 ukrop way
Lacoco	Matt	exkeels@jumpstartlab.com	43201	columbus	OH	222 W. Lane Ave 1103
Laurila	Matt	vcscomihamster@jumpstartlab.com	92111	San Diego	CA	3740 Boyd Ave
Page	Matt	lvdcleanenergy@jumpstartlab.com	04104	Portland	ME	39 Exchange Street
Sloan	Matt	swinney@jumpstartlab.com	28804	asheville	NC	1 university hts
Alwood	Matt	ostcd2@jumpstartlab.com	94110	San Francisco	CA	306 Elsie Street
Moore	Matt	byhamilt@jumpstartlab.com	24060	Blacksburg	VA	1211 i University Terr
Fu	Matt	dwwomble@jumpstartlab.com	33907	Ft Myers	FL	14194 Reflection Lakes Drive
Xx	Matt	dyRINGSTEAD@jumpstartlab.com	04101	Portland	ME	32 Deering St., Apt 14
Hoffman	Matt	ojam.conlin@jumpstartlab.com	04901	Waterville	ME	7574 Mayflower Hill
Doe	Matt	dysp@jumpstartlab.com	33967	Fort Myers	FL	8054 Almo Road
Doe	Matt	oqmm1at@jumpstartlab.com	00000	q	YK	q
Irle	Matt	dpjone@jumpstartlab.com	00000	q	YK	q
M	Matt	nyrgaret.leigh.perry@jumpstartlab.com	01063	Northampton	MA	1 Chapin Way
Small	Matt	hsephenjturk@jumpstartlab.com	55413	Minneapolis	MN	17 Lincoln St
Sandone	Matt	wcevalll@jumpstartlab.com	17604	lancaster	PA	415 harrisburg ave
Traore	Matt	uiiuzzi@jumpstartlab.com	53211	Milwaukee	WI	2576 W. Frederick Ave.
Zaragoza Ballesteros	Matt	qhTedrow@jumpstartlab.com	19342	Glenn Mills	PA	1066 Edgewood chase Drive
Fischer	Matt	iuf6@jumpstartlab.com	09438	Farmington	VT	158 Savage Rd
